[{"OBJECT_NAME":"STARLINK-32551","OBJECT_ID":"2024-225D","EPOCH":"2026-03-09T16:03:04.945536","MEAN_MOTION":14.98326828,"ECCENTRICITY":0.00026635,"INCLINATION":70.0041,"RA_OF_ASC_NODE":164.4454,"ARG_OF_PERICENTER":277.7203,"MEAN_ANOMALY":82.3654,"EPHEMERIS_TYPE":0,"CLASSIFICATION_TYPE":"U","NORAD_CAT_ID":62166,"ELEMENT_SET_NO":999,"REV_AT_EPOCH":6987,"BSTAR":0.00042814672,"MEAN_MOTION_DOT":5.019e-5,"MEAN_MOTION_DDOT":0},{"OBJECT_NAME":"CZ-4C R\/B","OBJECT_ID":"2021-079B","EPOCH":"2026-03-09T14:04:29.438112","MEAN_MOTION":15.08928015,"ECCENTRICITY":0.0108377,"INCLINATION":98.3883,"RA_OF_ASC_NODE":282.6111,"ARG_OF_PERICENTER":26.1585,"MEAN_ANOMALY":334.506,"EPHEMERIS_TYPE":0,"CLASSIFICATION_TYPE":"U","NORAD_CAT_ID":49123,"ELEMENT_SET_NO":999,"REV_AT_EPOCH":24640,"BSTAR":0.00023549,"MEAN_MOTION_DOT":4.178e-5,"MEAN_MOTION_DDOT":0}]
